# Made by eph2tle, compiled Dec 21 2018 08:58:07
# Run at Wed Dec 26 14:33:48 2018
#
#    The following TLEs (Two-Line Elements) were generated by fitting
# a numerically-integrated ephemeris,  based on the orbit given below,
# to the SDP4/SGP4 models.  Each TLE is good for the interval between
# its epoch and the epoch of the subsequent TLE (usually one day).
# The maximum deviation between the numerically integrated ephemerides
# and the TLE-based ephemeris, in kilometers,  is given for each TLE
# as the "worst residual".
#
#    This fitting is done using the 'eph2tle' code packaged with Find_Orb.
# The code has details on how the TLEs were computed :
#
#    https://github.com/Bill-Gray/find_orb/eph2tle.cpp
#
#    Be warned:  the error given is that between the numerically
# integrated ephems and the TLE model.  There will usually be at
# least some additional difference between the ephems and the actual
# motion of the satellite,  especially if the ephemerides are based
# on a short arc.  If the following orbital elements say something
# like "[based on] 10 observations 2015 Jan. 1-13",  and the TLEs
# are for 2015 May,  the extrapolation may be tenuous at best.  If
# your application requires a specific level of accuracy,  you may
# want to contact me;  I can give you some idea as to the fit of the
# underlying data (and possibly TLEs based on newer data).
#
#   You can usually find the underlying observational data,  and the
# fitted orbit,  residuals,  ephemerides,  and sometimes some comments
# about the object,  among the pages listed at
#
#    https://www.projectpluto.com/pluto/mpecs/pseudo.htm
#
#    Also,  if you use a TLE outside the "correct" time range (between
# its MJD and that of the next TLE),  all bets are off.  I've carefully
# computed and minimized the worst error over the "correct" time frame,
# but the ephemeris may (or may not) diverge wildly outside of it.
#
# Ephem range: 58484.000000 58849.000000 1.000000
# Created Wed Dec 26 14:33:18 2018
# Ephemeris start:  1 Jan 2019  0:00:00
# Ephemeris end:    1 Jan 2020  0:00:00
# Times are all TDT
# Positions/velocities are in equatorial J2000
# Orbital elements:  2015-019C = NORAD 41929 = S509356 = WJ2AD07
#    Perigee 2018 Sep 29.877950 +/- 1.53e-5 TT = 21:04:14 (JD 2458391.377950)
# A1: 1.88e-9 +/- 8.62e-11   A2: 7.01e-10 +/- 2.09e-11 AU/day^2
# Epoch 2018 Oct  1.0 TT = JDT 2458392.5                        Gray
# M 112.873289276 +/- 0.0015          (J2000 equator)
# n 100.595565900 +/- 1.31e-5         Peri.   64.953879 +/- 0.00048
# a 98828.97264 +/- 0.00856           Node   294.616786 +/- 0.00053
# e   0.67498508 +/- 7.34e-6          Incl.   25.912840 +/- 0.00013
# P5153.21m/3.579d           H 28.7   G  0.15   U  5.2  
# q 32120.88972 +/- 0.724    Q 165537.0555 +/- 0.731
# 111 of 259 observations 2017 Jan. 1-2018 Dec. 19; mean residual 12".249
#
# 1 NoradU COSPAR   Epoch.epoch     dn/dt/2  d2n/dt2/6 BSTAR    T El# C
# 2 NoradU Inclina RAAscNode Eccent  ArgPeri MeanAno  MeanMotion Rev# C

# Worst residual: 13.29 km
# MJD 58484.000000 (2019 Jan  1  0:00)
2015-019C = NORAD 41929 = S509356 = WJ2AD07
1 41929U 15019C   19001.49919926  .00000000  00000-0  00000-0 0  3603
2 41929 024.5149 287.4905 6561505 072.1281 048.3643 00.27881719    07

# Worst residual: 10.90 km
# MJD 58485.000000 (2019 Jan  2  0:00)
2015-019C = NORAD 41929 = S509356 = WJ2AD07
1 41929U 15019C   19002.49919926  .00000000  00000-0  00000-0 0  3604
2 41929 024.5045 287.4303 6559487 072.1103 149.0329 00.27928423    07

# Worst residual: 3.48 km
# MJD 58486.000000 (2019 Jan  3  0:00)
2015-019C = NORAD 41929 = S509356 = WJ2AD07
1 41929U 15019C   19003.49919926  .00000000  00000-0  00000-0 0  3605
2 41929 024.4929 287.3740 6559731 072.1196 249.7221 00.27930149    02

# Worst residual: 18.01 km
# MJD 58487.000000 (2019 Jan  4  0:00)
2015-019C = NORAD 41929 = S509356 = WJ2AD07
1 41929U 15019C   19004.49919926  .00000000  00000-0  00000-0 0  3606
2 41929 024.4793 287.3171 6549589 072.1587 350.1604 00.27954113    02

# Worst residual: 6.55 km
# MJD 58488.000000 (2019 Jan  5  0:00)
2015-019C = NORAD 41929 = S509356 = WJ2AD07
1 41929U 15019C   19005.49919926  .00000000  00000-0  00000-0 0  3607
2 41929 024.4668 287.2417 6554416 072.2332 090.6064 00.27915920    08

# Worst residual: 4.65 km
# MJD 58489.000000 (2019 Jan  6  0:00)
2015-019C = NORAD 41929 = S509356 = WJ2AD07
1 41929U 15019C   19006.49919926  .00000000  00000-0  00000-0 0  3608
2 41929 024.4522 287.1641 6556333 072.2975 191.1023 00.27922077    01

# Worst residual: 4.79 km
# MJD 58490.000000 (2019 Jan  7  0:00)
2015-019C = NORAD 41929 = S509356 = WJ2AD07
1 41929U 15019C   19007.49919926  .00000000  00000-0  00000-0 0  3609
2 41929 024.4396 287.1061 6557644 072.3219 291.7126 00.27911145    09

# Worst residual: 12.11 km
# MJD 58491.000000 (2019 Jan  8  0:00)
2015-019C = NORAD 41929 = S509356 = WJ2AD07
1 41929U 15019C   19008.49919926  .00000000  00000-0  00000-0 0  3600
2 41929 024.4335 287.0519 6554262 072.3920 032.2102 00.27948687    04

# Worst residual: 3.95 km
# MJD 58492.000000 (2019 Jan  9  0:00)
2015-019C = NORAD 41929 = S509356 = WJ2AD07
1 41929U 15019C   19009.49919926  .00000000  00000-0  00000-0 0  3601
2 41929 024.4193 286.9840 6557404 072.4838 132.6109 00.27921948    04

# Worst residual: 6.58 km
# MJD 58493.000000 (2019 Jan 10  0:00)
2015-019C = NORAD 41929 = S509356 = WJ2AD07
1 41929U 15019C   19010.49919926  .00000000  00000-0  00000-0 0  3603
2 41929 024.4147 286.9761 6554692 072.4921 233.1091 00.27915109    03

# Worst residual: 18.41 km
# MJD 58494.000000 (2019 Jan 11  0:00)
2015-019C = NORAD 41929 = S509356 = WJ2AD07
1 41929U 15019C   19011.49919926  .00000000  00000-0  00000-0 0  3604
2 41929 024.4057 286.9123 6558560 072.5382 333.6686 00.27888873    08

# Worst residual: 5.19 km
# MJD 58495.000000 (2019 Jan 12  0:00)
2015-019C = NORAD 41929 = S509356 = WJ2AD07
1 41929U 15019C   19012.49919926  .00000000  00000-0  00000-0 0  3605
2 41929 024.3938 286.8768 6554079 072.6307 074.0915 00.27903612    08

# Worst residual: 2.45 km
# MJD 58496.000000 (2019 Jan 13  0:00)
2015-019C = NORAD 41929 = S509356 = WJ2AD07
1 41929U 15019C   19013.49919926  .00000000  00000-0  00000-0 0  3606
2 41929 024.3891 286.8403 6554458 072.6439 174.6100 00.27917933    03

# Worst residual: 1.31 km
# MJD 58497.000000 (2019 Jan 14  0:00)
2015-019C = NORAD 41929 = S509356 = WJ2AD07
1 41929U 15019C   19014.49919926  .00000000  00000-0  00000-0 0  3607
2 41929 024.3798 286.8244 6555507 072.6716 275.0934 00.27924478    09

# Worst residual: 15.15 km
# MJD 58498.000000 (2019 Jan 15  0:00)
2015-019C = NORAD 41929 = S509356 = WJ2AD07
1 41929U 15019C   19015.49919926  .00000000  00000-0  00000-0 0  3608
2 41929 024.3717 286.7559 6556917 072.7504 015.5821 00.27904426    03

# Worst residual: 7.34 km
# MJD 58499.000000 (2019 Jan 16  0:00)
2015-019C = NORAD 41929 = S509356 = WJ2AD07
1 41929U 15019C   19016.49919926  .00000000  00000-0  00000-0 0  3609
2 41929 024.3606 286.6906 6551288 072.8422 116.0696 00.27906510    04

# Worst residual: 1.76 km
# MJD 58500.000000 (2019 Jan 17  0:00)
2015-019C = NORAD 41929 = S509356 = WJ2AD07
1 41929U 15019C   19017.49919926  .00000000  00000-0  00000-0 0  3600
2 41929 024.3488 286.6238 6551202 072.8881 216.5942 00.27914105    04

# Worst residual: 23.24 km
# MJD 58501.000000 (2019 Jan 18  0:00)
2015-019C = NORAD 41929 = S509356 = WJ2AD07
1 41929U 15019C   19018.49919926  .00000000  00000-0  00000-0 0  3601
2 41929 024.3375 286.5542 6545798 072.9992 316.9323 00.27944969    02

# Worst residual: 23.37 km
# MJD 58502.000000 (2019 Jan 19  0:00)
2015-019C = NORAD 41929 = S509356 = WJ2AD07
1 41929U 15019C   19019.49919926  .00000000  00000-0  00000-0 0  3602
2 41929 024.3251 286.4792 6545492 073.0142 057.5022 00.27951480    01

# Worst residual: 4.78 km
# MJD 58503.000000 (2019 Jan 20  0:00)
2015-019C = NORAD 41929 = S509356 = WJ2AD07
1 41929U 15019C   19020.49919926  .00000000  00000-0  00000-0 0  3604
2 41929 024.3058 286.3912 6548549 073.1045 157.9897 00.27940263    00

# Worst residual: 10.64 km
# MJD 58504.000000 (2019 Jan 21  0:00)
2015-019C = NORAD 41929 = S509356 = WJ2AD07
1 41929U 15019C   19021.49919926  .00000000  00000-0  00000-0 0  3605
2 41929 024.2968 286.3773 6542597 073.0640 258.6898 00.27917407    05

# Worst residual: 13.99 km
# MJD 58505.000000 (2019 Jan 22  0:00)
2015-019C = NORAD 41929 = S509356 = WJ2AD07
1 41929U 15019C   19022.49919926  .00000000  00000-0  00000-0 0  3606
2 41929 024.2823 286.3419 6539786 073.0994 359.1782 00.27929888    05

# Worst residual: 20.26 km
# MJD 58506.000000 (2019 Jan 23  0:00)
2015-019C = NORAD 41929 = S509356 = WJ2AD07
1 41929U 15019C   19023.49919926  .00000000  00000-0  00000-0 0  3607
2 41929 024.2329 286.2275 6542181 073.2238 099.5762 00.27911836    08

# Worst residual: 9.64 km
# MJD 58507.000000 (2019 Jan 24  0:00)
2015-019C = NORAD 41929 = S509356 = WJ2AD07
1 41929U 15019C   19024.49919926  .00000000  00000-0  00000-0 0  3608
2 41929 024.1559 285.8401 6545352 073.6463 199.7698 00.27903272    01

# Worst residual: 12.04 km
# MJD 58508.000000 (2019 Jan 25  0:00)
2015-019C = NORAD 41929 = S509356 = WJ2AD07
1 41929U 15019C   19025.49919926  .00000000  00000-0  00000-0 0  3609
2 41929 024.1454 285.5608 6552015 073.9226 300.2691 00.27910349    00

# Worst residual: 20.79 km
# MJD 58509.000000 (2019 Jan 26  0:00)
2015-019C = NORAD 41929 = S509356 = WJ2AD07
1 41929U 15019C   19026.49919926  .00000000  00000-0  00000-0 0  3600
2 41929 024.1505 285.5120 6554720 074.0492 040.7237 00.27904918    05

# Worst residual: 5.17 km
# MJD 58510.000000 (2019 Jan 27  0:00)
2015-019C = NORAD 41929 = S509356 = WJ2AD07
1 41929U 15019C   19027.49919926  .00000000  00000-0  00000-0 0  3601
2 41929 024.1292 285.4289 6546199 074.1045 141.4114 00.27934259    03
